*******************************************************************************
JPL/HORIZONS                203 Pompeja (A879 SA)          2023-Sep-04 11:04:59
Rec #:     203 (+COV) Soln.date: 2023-Aug-22_15:17:15   # obs: 7320 (1879-2023)
 
IAU76/J2000 helio. ecliptic osc. elements (au, days, deg., period=Julian yrs):
 
  EPOCH=  2457750.5 ! 2016-Dec-28.00 (TDB)         Residual RMS= .29479
   EC= .05844664508810216  QR= 2.576907752731573   TP= 2457381.9687178503
   OM= 347.9166144614062   W=  57.13663177417419   IN= 3.17791979397375
   A= 2.736868536751905    MA= 80.22274654346778   ADIST= 2.896829320772237
   PER= 4.52782            N= .217682326           ANGMOM= .028409616
   DAN= 2.64367            DDN= 2.81686            L= 45.0130426
   B= 2.6689443            MOID= 1.58633995        TP= 2015-Dec-25.4687178503
 
Asteroid physical parameters (km, seconds, rotational period in hours):
   GM= n.a.                RAD= 62.296             ROTPER= 24.052
   H= 8.98                 G= .150                 B-V= .702
                           ALBEDO= .036            STYP= DCX:

ASTEROID comments: 
1: soln ref.= JPL#134, OCC=0
2: source=ORB
*******************************************************************************


*******************************************************************************
Ephemeris / API_USER Mon Sep  4 11:04:59 2023 Pasadena, USA      / Horizons
*******************************************************************************
Target body name: 203 Pompeja (A879 SA)           {source: JPL#134}
Center body name: Solar System Barycenter (0)     {source: DE441}
Center-site name: BODY CENTER
*******************************************************************************
Start time      : A.D. 2023-Aug-12 00:00:00.0000 TDB
Stop  time      : A.D. 2023-Aug-13 00:00:00.0000 TDB
Step-size       : 2880 minutes
*******************************************************************************
Center geodetic : 0.0, 0.0, 0.0                   {E-lon(deg),Lat(deg),Alt(km)}
Center cylindric: 0.0, 0.0, 0.0                   {E-lon(deg),Dxy(km),Dz(km)}
Center radii    : (undefined)
Small perturbers: Yes                             {source: SB441-N16}
Output units    : KM-S
Calendar mode   : Mixed Julian/Gregorian
Output type     : GEOMETRIC cartesian states
Output format   : 2 (position and velocity)
Reference frame : Ecliptic of J2000.0
*******************************************************************************
Initial IAU76/J2000 heliocentric ecliptic osculating elements (au, days, deg.):
  EPOCH=  2457750.5 ! 2016-Dec-28.00 (TDB)         Residual RMS= .29479        
   EC= .05844664508810216  QR= 2.576907752731573   TP= 2457381.9687178503      
   OM= 347.9166144614062   W=  57.13663177417419   IN= 3.17791979397375        
  Equivalent ICRF heliocentric cartesian coordinates (au, au/d):
   X=-1.817836683919360E+00  Y= 1.818015938530527E+00  Z= 8.847061624441208E-01
  VX=-8.175608299740440E-03 VY=-5.803189177300366E-03 VZ=-3.005367780206823E-03
Asteroid physical parameters (km, seconds, rotational period in hours):        
   GM= n.a.                RAD= 62.296             ROTPER= 24.052              
   H= 8.98                 G= .150                 B-V= .702                   
                           ALBEDO= .036            STYP= DCX:                  
*******************************************************************************
JDTDB
   X     Y     Z
   VX    VY    VZ
*******************************************************************************
$$SOE
2460168.500000000 = A.D. 2023-Aug-12 00:00:00.0000 TDB 
 X = 1.105347895249538E+08 Y =-4.060586343279998E+08 Z =-2.061956158342659E+07
 VX= 1.659715835441655E+01 VY= 5.475729517781347E+00 VZ= 4.930429353987729E-01
$$EOE
*******************************************************************************
 
TIME

  Barycentric Dynamical Time ("TDB" or T_eph) output was requested. This
continuous coordinate time is equivalent to the relativistic proper time
of a clock at rest in a reference frame co-moving with the solar system
barycenter but outside the system's gravity well. It is the independent
variable in the solar system relativistic equations of motion.

  TDB runs at a uniform rate of one SI second per second and is independent
of irregularities in Earth's rotation.
 
CALENDAR SYSTEM

  Mixed calendar mode was active such that calendar dates after AD 1582-Oct-15
(if any) are in the modern Gregorian system. Dates prior to 1582-Oct-5 (if any)
are in the Julian calendar system, which is automatically extended for dates
prior to its adoption on 45-Jan-1 BC.  The Julian calendar is useful for
matching historical dates. The Gregorian calendar more accurately corresponds
to the Earth's orbital motion and seasons. A "Gregorian-only" calendar mode is
available if such physical events are the primary interest.

REFERENCE FRAME AND COORDINATES

  Ecliptic at the standard reference epoch

    Reference epoch: J2000.0
    X-Y plane: adopted Earth orbital plane at the reference epoch
               Note: IAU76 obliquity of 84381.448 arcseconds wrt ICRF X-Y plane
    X-axis   : ICRF
    Z-axis   : perpendicular to the X-Y plane in the directional (+ or -) sense
               of Earth's north pole at the reference epoch.

  Symbol meaning:

    JDTDB    Julian Day Number, Barycentric Dynamical Time
      X      X-component of position vector (km)
      Y      Y-component of position vector (km)
      Z      Z-component of position vector (km)
      VX     X-component of velocity vector (km/sec)                           
      VY     Y-component of velocity vector (km/sec)                           
      VZ     Z-component of velocity vector (km/sec)                           

ABERRATIONS AND CORRECTIONS

 Geometric state vectors have NO corrections or aberrations applied.

Computations by ...

    Solar System Dynamics Group, Horizons On-Line Ephemeris System
    4800 Oak Grove Drive, Jet Propulsion Laboratory
    Pasadena, CA  91109   USA

    General site: https://ssd.jpl.nasa.gov/
    Mailing list: https://ssd.jpl.nasa.gov/email_list.html
    System news : https://ssd.jpl.nasa.gov/horizons/news.html
    User Guide  : https://ssd.jpl.nasa.gov/horizons/manual.html
    Connect     : browser        https://ssd.jpl.nasa.gov/horizons/app.html#/x
                  API            https://ssd-api.jpl.nasa.gov/doc/horizons.html
                  command-line   telnet ssd.jpl.nasa.gov 6775
                  e-mail/batch   https://ssd.jpl.nasa.gov/ftp/ssd/hrzn_batch.txt
                  scripts        https://ssd.jpl.nasa.gov/ftp/ssd/SCRIPTS
    Author      : Jon.D.Giorgini@jpl.nasa.gov
*******************************************************************************
